IRIDIUM 159             
1 43578U 18061K   24022.63456418  .00000066  00000+0  16461-4 0  9993
2 43578  86.3933  63.0390 0002362  96.5887 263.5578 14.34215745287748
IRIDIUM 180             
1 43922U 19002A   24022.91311701  .00000684  00000+0  23707-3 0  9994
2 43922  86.3984 359.8015 0002221  88.7871 271.3579 14.34214854263390
IRIDIUM 176             
1 43923U 19002B   24022.91931129  .00001508  00000+0  23536-3 0  9993
2 43923  86.6116 359.8282 0002206  88.1246 272.0224 14.72226859270326
IRIDIUM 168             
1 43924U 19002C   24022.90678801  .00000255  00000+0  84114-4 0  9996
2 43924  86.3987 359.8564 0002183  88.3909 271.7537 14.34215518263373
IRIDIUM 173             
1 43925U 19002D   24022.89410735  .00000148  00000+0  45806-4 0  9991
2 43925  86.3984 359.7869 0002276  85.3028 274.8428 14.34217227263350
IRIDIUM 169             
1 43926U 19002E   24022.57126676  .00000320  00000+0  98130-4 0  9995
2 43926  86.4210  31.5241 0003273  35.4873 324.6543 14.38613441264192
IRIDIUM 172             
1 43927U 19002F   24022.95753197  .00000212  00000+0  68689-4 0  9998
2 43927  86.3983 359.7661 0002191  91.0662 269.0785 14.34217327263370
IRIDIUM 175             
1 43928U 19002G   24022.91339113  .00001896  00000+0  29694-3 0  9994
2 43928  86.1533 341.2517 0002438  87.1569 272.9926 14.72222098270317
